[{"OBJECT_NAME":"YAOGAN-36 03A","OBJECT_ID":"2022-160A","EPOCH":"2026-03-09T21:08:19.248576","MEAN_MOTION":15.31468155,"ECCENTRICITY":0.00027649,"INCLINATION":34.9999,"RA_OF_ASC_NODE":237.2222,"ARG_OF_PERICENTER":84.1273,"MEAN_ANOMALY":275.9759,"EPHEMERIS_TYPE":0,"CLASSIFICATION_TYPE":"U","NORAD_CAT_ID":54372,"ELEMENT_SET_NO":999,"REV_AT_EPOCH":18296,"BSTAR":0.00056596392,"MEAN_MOTION_DOT":0.00017652,"MEAN_MOTION_DDOT":0},{"OBJECT_NAME":"STARLINK-34298","OBJECT_ID":"2025-120P","EPOCH":"2026-03-09T12:35:09.151008","MEAN_MOTION":15.30192964,"ECCENTRICITY":0.0001302,"INCLINATION":53.159,"RA_OF_ASC_NODE":117.2622,"ARG_OF_PERICENTER":76.1917,"MEAN_ANOMALY":283.9228,"EPHEMERIS_TYPE":0,"CLASSIFICATION_TYPE":"U","NORAD_CAT_ID":64269,"ELEMENT_SET_NO":999,"REV_AT_EPOCH":4379,"BSTAR":0.00094933,"MEAN_MOTION_DOT":0.00027856,"MEAN_MOTION_DDOT":0}]
